ONEWEB-0328             
1 49197U 21083M   25162.08417701  .00000322  00000+0  84601-3 0  9996
2 49197  87.8966  33.9507 0001940  80.9926 279.1423 13.13470166183474
ONEWEB-0331             
1 49198U 21083N   25161.96061067  .00000094  00000+0  20558-3 0  9990
2 49198  87.9142  49.2237 0001973  69.1198 291.0146 13.18684999181084
ONEWEB-0333             
1 49199U 21083P   25161.69821506  .00000215  00000+0  55250-3 0  9995
2 49199  87.8976  34.0928 0001822  83.3851 276.7486 13.13470788182144
ONEWEB-0334             
1 49200U 21083Q   25162.46455392  .00000078  00000+0  15928-3 0  9995
2 49200  87.9251 348.3071 0002085 121.0815 239.0523 13.20770869189148
ONEWEB-0335             
1 49201U 21083R   25161.92166400  .00000051  00000+0  10580-3 0  9995
2 49201  87.8979  34.0365 0001758  75.9025 284.2299 13.13469792182187
ONEWEB-0336             
1 49202U 21083S   25161.66434704 -.00000220  00000+0 -63735-3 0  9992
2 49202  87.8978  34.0808 0001708  82.0697 278.0626 13.13468662182144
ONEWEB-0337             
1 49203U 21083T   25162.35996489 -.00000506  00000+0 -14204-2 0  9996
2 49203  87.8980  33.9421 0001929  77.3546 282.7799 13.13470054183537
ONEWEB-0338             
1 49204U 21083U   25161.98477289  .00000030  00000+0  41312-4 0  9999
2 49204  87.9257 348.3924 0001910 101.1093 259.0255 13.20771433189117
ONEWEB-0339             
1 49205U 21083V   25162.36856985 -.00000233  00000+0 -67302-3 0  9990
2 49205  87.8974  33.9274 0001934  83.8927 276.2423 13.13469802183518
ONEWEB-0340             
1 49206U 21083W   25161.94639108  .00000058  00000+0  11505-3 0  9997
2 49206  87.9151  49.2262 0001859  77.8628 282.2712 13.18687141181048
ONEWEB-0341             
1 49207U 21083X   25162.10604553  .00000104  00000+0  23096-3 0  9993
2 49207  87.9152  49.2053 0002479  78.8783 281.2628 13.18686599182378
ONEWEB-0342             
1 49208U 21083Y   25162.52137905  .00000056  00000+0  10572-3 0  9993
2 49208  87.9247 348.2651 0001867  94.1163 266.0184 13.20772151189157
ONEWEB-0343             
1 49209U 21083Z   25161.64604185 -.00000189  00000+0 -51105-3 0  9991
2 49209  87.9153  49.2838 0002471  85.9963 274.1451 13.18685805181073
ONEWEB-0344             
1 49210U 21083AA  25161.90642704 -.00000262  00000+0 -75142-3 0  9990
2 49210  87.8982  34.0589 0002204  76.7293 283.4082 13.13471207183458
ONEWEB-0345             
1 49211U 21083AB  25162.05031550 -.00000468  00000+0 -13178-2 0  9997
2 49211  87.8975  33.9826 0002295  76.7357 283.4028 13.13469282183487
ONEWEB-0346             
1 49212U 21083AC  25161.95902337  .00000052  00000+0  98387-4 0  9990
2 49212  87.9147  49.2435 0001616  60.3661 299.7632 13.18684523181053
ONEWEB-0348             
1 49213U 21083AD  25162.51191304  .00000041  00000+0  67912-4 0  9996
2 49213  87.9258 348.2731 0002051  71.5796 288.5560 13.20772447189189
ONEWEB-0350             
1 49214U 21083AE  25161.67874364 -.00000115  00000+0 -35030-3 0  9996
2 49214  87.8976  34.0486 0002163  77.8630 282.2741 13.13470012182161
ONEWEB-0351             
1 49215U 21083AF  25161.59637046  .00000037  00000+0  60234-4 0  9998
2 49215  87.9254 348.4388 0002399 106.8998 253.2399 13.20773553187724
ONEWEB-0352             
1 49216U 21083AG  25162.04015975 -.00000033  00000+0 -12493-3 0  9992
2 49216  87.8978  34.0168 0002077  93.7821 266.3545 13.13470940183600
ONEWEB-0354             
1 49217U 21083AH  25162.53085058  .00000109  00000+0  23731-3 0  9995
2 49217  87.9258 348.2509 0002043  83.6736 276.4630 13.20771728189191
ONEWEB-0355             
1 49218U 21083AJ  25162.37378875 -.00000143  00000+0 -42762-3 0  9995
2 49218  87.8976  33.9488 0002040  84.6101 275.5260 13.13471789183522
ONEWEB-0357             
1 49219U 21083AK  25162.52769323  .00000059  00000+0  11221-3 0  9995
2 49219  87.9252 348.2577 0001989  92.7269 267.4092 13.20772266189181
ONEWEB-0332             
1 49279U 21090A   25162.52500811 -.00000356  00000+0 -99355-3 0  9990
2 49279  87.9033   3.4629 0001763  96.1730 263.9600 13.14502747178882
ONEWEB-0347             
1 49280U 21090B   25162.51823285  .00000035  00000+0  53823-4 0  9997
2 49280  87.9256 348.2678 0001563  99.8913 260.2397 13.20772153182117
ONEWEB-0349             
1 49281U 21090C   25161.94373574  .00000082  00000+0  16974-3 0  9992
2 49281  87.9260 348.3877 0001918  91.4111 268.7242 13.20771810182118
ONEWEB-0353             
1 49282U 21090D   25162.51707968 -.00000431  00000+0 -11965-2 0  9999
2 49282  87.9032   3.4511 0001676  96.1046 264.0275 13.14502205180172
ONEWEB-0356             
1 49283U 21090E   25162.54820805  .00000121  00000+0  26568-3 0  9999
2 49283  87.9259 348.2586 0001116  65.8232 294.3018 13.20772716182193
ONEWEB-0358             
1 49284U 21090F   25161.59335517 -.00000019  00000+0 -79622-4 0  9993
2 49284  87.9259 348.4385 0001839  85.4660 274.6684 13.20771705181509
ONEWEB-0359             
1 49285U 21090G   25161.59018849 -.00000004  00000+0 -41289-4 0  9992
2 49285  87.9257 348.4514 0002072  80.8698 279.2669 13.20775374181489
ONEWEB-0360             
1 49286U 21090H   25161.80800183  .00000028  00000+0  35976-4 0  9997
2 49286  87.9258 348.4139 0001937  86.2777 273.8577 13.20772031180823
ONEWEB-0361             
1 49287U 21090J   25162.54663148  .00000130  00000+0  28823-3 0  9994
2 49287  87.9258 348.2625 0001661  86.4447 273.6876 13.20771864182209
ONEWEB-0362             
1 49288U 21090K   25162.05401948 -.00000024  00000+0 -91562-4 0  9994
2 49288  87.9224  18.7705 0002034  88.7478 271.3888 13.19724544178782
ONEWEB-0363             
1 49289U 21090L   25162.56241337  .00000052  00000+0  96437-4 0  9990
2 49289  87.9258 348.2541 0001543  78.0885 282.0421 13.20771689182216
ONEWEB-0364             
1 49290U 21090M   25162.52453497  .00000034  00000+0  52199-4 0  9997
2 49290  87.9258 348.2918 0001663  89.3923 270.7401 13.20772560183332
ONEWEB-0365             
1 49291U 21090N   25162.51840347 -.00000050  00000+0 -15733-3 0  9993
2 49291  87.9215  18.6350 0001840  89.0905 271.0439 13.19725846178824
ONEWEB-0366             
1 49292U 21090P   25161.82885075 -.00000139  00000+0 -41007-3 0  9995
2 49292  87.9035   3.6004 0001774  86.2778 273.8554 13.14504291178774
ONEWEB-0367             
1 49293U 21090Q   25161.80326950  .00000082  00000+0  17050-3 0  9992
2 49293  87.9258 348.4004 0002013  94.7341 265.4022 13.20771963180802
ONEWEB-0368             
1 49294U 21090R   25161.77644089  .00000065  00000+0  12779-3 0  9999
2 49294  87.9258 348.4392 0001131 109.0092 251.1163 13.20771838181952
ONEWEB-0369             
1 49295U 21090S   25162.51366173 -.00000015  00000+0 -70691-4 0  9993
2 49295  87.9224  18.6637 0001785  89.2626 270.8711 13.19727094178812
ONEWEB-0370             
1 49296U 21090T   25162.49455359 -.00000009  00000+0 -53385-4 0  9990
2 49296  87.9258 348.2683 0002185  87.9920 272.1463 13.20771373182231
ONEWEB-0371             
1 49297U 21090U   25162.52155947 -.00000063  00000+0 -18851-3 0  9993
2 49297  87.9225  18.6516 0001900  86.7920 273.3430 13.19726122178850
ONEWEB-0372             
1 49298U 21090V   25161.57427824 -.00000001  00000+0 -34373-4 0  9994
2 49298  87.9258 348.4609 0001794  94.5160 265.6178 13.20772288182087
ONEWEB-0373             
1 49299U 21090W   25161.98003595 -.00000020  00000+0 -81968-4 0  9998
2 49299  87.9255 348.3912 0001626  87.1927 272.9393 13.20772422183322
ONEWEB-0374             
1 49300U 21090X   25162.50121757 -.00000142  00000+0 -41794-3 0  9998
2 49300  87.9035   3.4472 0001250  80.2196 279.9075 13.14501738180151
ONEWEB-0375             
1 49301U 21090Y   25162.49770699 -.00000020  00000+0 -79946-4 0  9998
2 49301  87.9257 348.2661 0001565  69.7479 290.3823 13.20771718182887
ONEWEB-0376             
1 49302U 21090Z   25162.51998449 -.00000034  00000+0 -11670-3 0  9991
2 49302  87.9217  18.6372 0001833  93.3586 266.7756 13.19725947178845
ONEWEB-0377             
1 49303U 21090AA  25162.55940409  .00000042  00000+0  71917-4 0  9997
2 49303  87.9258 348.2468 0001999  83.7320 276.4041 13.20770816182871
ONEWEB-0378             
1 49304U 21090AB  25161.97541740 -.00000070  00000+0 -20422-3 0  9995
2 49304  87.9259 348.3703 0001718  87.3095 272.8235 13.20774349182100
ONEWEB-0379             
1 49305U 21090AC  25162.49647353 -.00000056  00000+0 -18643-3 0  9997
2 49305  87.9035   3.4527 0001680  89.8573 270.2749 13.14502311180169
ONEWEB-0380             
1 49306U 21090AD  25162.51681157 -.00000131  00000+0 -36000-3 0  9992
2 49306  87.9224  18.6651 0001882  78.4712 281.6632 13.19726686178813
ONEWEB-0381             
1 49307U 21090AE  25161.57127372 -.00000006  00000+0 -47784-4 0  9995
2 49307  87.9258 348.4515 0001738  81.5743 278.5587 13.20771184182075
ONEWEB-0382             
1 49308U 21090AF  25162.46771872  .00000082  00000+0  17047-3 0  9995
2 49308  87.9257 348.2676 0001518  83.8967 276.2340 13.20772100182194
ONEWEB-0383             
1 49309U 21090AG  25161.80506873  .00000125  00000+0  30257-3 0  9996
2 49309  87.9035   3.5707 0001616  89.4670 270.6645 13.14505248178806
ONEWEB-0384             
1 49310U 21090AH  25162.46386316  .00000074  00000+0  15050-3 0  9996
2 49310  87.9261 348.2853 0001343  82.2492 277.8793 13.20785248182209
ONEWEB-0385             
1 49311U 21090AJ  25162.53559458  .00000124  00000+0  27360-3 0  9997
2 49311  87.9260 348.2718 0001719  89.4664 270.6666 13.20772018182195
ONEWEB-0386             
1 49312U 21090AK  25162.55294405  .00000119  00000+0  26113-3 0  9997
2 49312  87.9252 348.2388 0001517  89.0819 271.0489 13.20771830182205
ONEWEB-0387             
1 49313U 21090AL  25162.46140497  .00000081  00000+0  16853-3 0  9997
2 49313  87.9242 348.3199 0001814  80.1529 279.9809 13.20772108182196
ONEWEB-0388             
1 49314U 21090AM  25162.51207576 -.00000054  00000+0 -16824-3 0  9996
2 49314  87.9223  18.6710 0001697  83.4397 276.6929 13.19727686178810
